OBJECT_NAME,OBJECT_ID,EPOCH,MEAN_MOTION,ECCENTRICITY,INCLINATION,RA_OF_ASC_NODE,ARG_OF_PERICENTER,MEAN_ANOMALY,EPHEMERIS_TYPE,CLASSIFICATION_TYPE,NORAD_CAT_ID,ELEMENT_SET_NO,REV_AT_EPOCH,BSTAR,MEAN_MOTION_DOT,MEAN_MOTION_DDOT
INTELSAT 21 (IS-21),2012-045A,2026-06-16T12:44:23.369856,1.00270345,.00013223,0.0077,310.7915,155.0226,292.0799,0,U,38749,999,5051,0,-.286E-5,0
INTELSAT 23 (IS-23),2012-057A,2026-06-16T11:37:38.722944,1.00268351,.00002061,0.0177,305.1566,51.2003,29.8210,0,U,38867,999,4994,0,-.286E-5,0
FM-6,2013-058A,2026-06-16T12:27:42.482880,1.00292473,.00032398,0.0297,40.2071,153.2737,141.9075,0,U,39360,999,4606,0,0,0
INTELSAT 30 (IS-30),2014-062A,2026-06-16T14:16:28.472736,1.00271871,.00011599,0.0247,45.2557,336.9496,1.7252,0,U,40271,999,678,0,-.153E-5,0
DIRECTV 14,2014-078B,2026-06-16T11:46:38.506944,1.00269953,.0000515,0.0113,18.2775,282.0583,41.8420,0,U,40333,999,4203,0,-.127E-5,0
DIRECTV 15,2015-026A,2026-06-16T11:46:38.506944,1.00270929,.00002172,0.0163,19.7583,245.1602,73.6288,0,U,40663,999,4045,0,-.104E-5,0
SKY MEXICO-1,2015-026B,2026-06-16T12:38:26.454048,1.00270315,.00020271,0.0172,10.3239,96.8202,268.4584,0,U,40664,999,4044,0,-.236E-5,0
INTELSAT 34 (IS-34),2015-039A,2026-06-16T11:37:38.722944,1.00269039,.000056,0.0105,335.1020,344.7370,63.8407,0,U,40874,999,3962,0,-.287E-5,0
INTELSAT 31 (IS-31),2016-035A,2026-06-16T14:16:28.472736,1.00269670,.00011116,0.0179,271.7404,345.4107,126.7775,0,U,41581,999,3667,0,-.152E-5,0
INTELSAT 36 (IS-36),2016-053A,2026-06-16T13:20:27.410784,1.00270683,.00022007,0.0113,6.9408,325.4634,201.0285,0,U,41747,999,3595,0,-.26E-6,0
INTELSAT 32E (IS-32E),2017-007B,2026-06-16T12:48:15.499008,1.00269133,.00007608,0.0153,339.8589,330.3179,103.5119,0,U,41945,999,3421,0,-.271E-5,0
INTELSAT 35E (IS-35E),2017-041A,2026-06-16T10:27:26.360064,1.00268727,.00015946,0.0177,328.8419,109.9686,308.2476,0,U,42818,999,3280,0,-.24E-5,0
INTELSAT 37E (IS-37E),2017-059A,2026-06-16T09:30:23.808960,1.00271714,.00023575,0.0175,22.5598,84.1806,282.5399,0,U,42950,999,3205,0,-.142E-5,0
AZERSPACE 2 (IS-38),2018-074A,2026-06-16T13:13:43.057056,1.00270381,.00012098,0.0009,358.9485,85.9791,63.4244,0,U,43632,999,2844,0,.135E-5,0
HORIZONS-3E,2018-074B,2026-06-16T13:49:01.104672,1.00270487,.00008771,0.0190,170.0891,99.8833,11.1235,0,U,43633,999,2833,0,-.33E-6,0
AT&T T-16,2019-034A,2026-06-16T11:46:38.506944,1.00268482,.00007979,0.0206,59.6524,215.4965,65.4050,0,U,44333,999,2562,0,-.116E-5,0
INTELSAT 39 (IS-39),2019-049B,2026-06-15T11:38:41.646336,1.00270578,.00009386,0.0009,5.7459,308.1942,186.4495,0,U,44476,999,2511,0,.36E-6,0
GALAXY 30 (G-30),2020-056C,2026-06-16T12:25:12.722304,1.00271086,.00020929,0.0157,22.2185,63.4766,240.3870,0,U,46114,999,2128,0,.35E-6,0
GALAXY 33 (G-33),2022-128A,2026-06-16T12:22:57.936576,1.00271787,.00016036,0.0106,18.3750,69.2524,229.9028,0,U,54026,999,1373,0,.77E-6,0
GALAXY 34 (G-34),2022-128B,2026-06-15T12:26:48.200352,1.00271904,.00013101,0.0129,6.0107,96.4818,219.0064,0,U,54027,999,1389,0,.61E-6,0
GALAXY 31 (G-31),2022-153A,2026-06-16T12:26:20.114304,1.00270941,.0001016,0.0149,39.8765,36.2552,254.2250,0,U,54243,999,712,0,.12E-6,0
GALAXY 32 (G-32),2022-153B,2026-06-14T22:56:24.476640,1.00491998,.0015287,0.0165,349.6788,254.3091,272.5395,0,U,54244,999,1312,0,-.197E-5,0
GALAXY 35 (G-35),2022-170A,2026-06-16T11:52:51.710880,1.00268559,.00018498,0.0201,28.2868,58.7079,262.8757,0,U,54741,999,1288,0,0,0
GALAXY 36 (G-36),2022-170B,2026-06-16T12:35:26.741184,1.00270253,.00025022,0.0181,256.2325,188.0884,280.3329,0,U,54742,999,1276,0,-.187E-5,0
GALAXY 37 (G-37),2023-112A,2026-06-15T22:43:09.772032,1.00271514,.00016993,0.0257,63.8054,18.0301,36.1756,0,U,57493,999,1053,0,.49E-6,0
